[{"OBJECT_NAME":"STARLINK-31848","OBJECT_ID":"2024-093C","EPOCH":"2026-03-09T09:57:19.658304","MEAN_MOTION":15.27561249,"ECCENTRICITY":0.00010998,"INCLINATION":43.0002,"RA_OF_ASC_NODE":206.9663,"ARG_OF_PERICENTER":289.2615,"MEAN_ANOMALY":70.8118,"EPHEMERIS_TYPE":0,"CLASSIFICATION_TYPE":"U","NORAD_CAT_ID":59784,"ELEMENT_SET_NO":999,"REV_AT_EPOCH":10269,"BSTAR":-6.495865e-6,"MEAN_MOTION_DOT":-4.41e-6,"MEAN_MOTION_DDOT":0},{"OBJECT_NAME":"TOMORROW-S4","OBJECT_ID":"2024-247K","EPOCH":"2026-03-09T12:47:35.836224","MEAN_MOTION":15.27717249,"ECCENTRICITY":0.00044343,"INCLINATION":44.9818,"RA_OF_ASC_NODE":117.9996,"ARG_OF_PERICENTER":210.4078,"MEAN_ANOMALY":149.6548,"EPHEMERIS_TYPE":0,"CLASSIFICATION_TYPE":"U","NORAD_CAT_ID":62386,"ELEMENT_SET_NO":999,"REV_AT_EPOCH":6770,"BSTAR":0.00046927249,"MEAN_MOTION_DOT":0.00012677,"MEAN_MOTION_DDOT":0}]
